{"fetchedAt":"2026-06-29T18:07:57.194Z","satellites":[{"id":"42808","name":"IRIDIUM 117","constellationId":"iridium","omm":{"OBJECT_NAME":"IRIDIUM 117","OBJECT_ID":"2017-039F","EPOCH":"2026-06-29T13:00:34.931808","MEAN_MOTION":14.34217262,"ECCENTRICITY":0.0001983,"INCLINATION":86.3974,"RA_OF_ASC_NODE":348.4273,"ARG_OF_PERICENTER":90.2526,"MEAN_ANOMALY":269.8897,"EPHEMERIS_TYPE":0,"CLASSIFICATION_TYPE":"U","NORAD_CAT_ID":42808,"ELEMENT_SET_NO":999,"REV_AT_EPOCH":47174,"BSTAR":-0.0000065834,"MEAN_MOTION_DOT":1e-8,"MEAN_MOTION_DDOT":0}},{"id":"42809","name":"IRIDIUM 126","constellationId":"iridium","omm":{"OBJECT_NAME":"IRIDIUM 126","OBJECT_ID":"2017-039G","EPOCH":"2026-06-29T11:56:38.943744","MEAN_MOTION":14.34217427,"ECCENTRICITY":0.0002138,"INCLINATION":86.3976,"RA_OF_ASC_NODE":348.4969,"ARG_OF_PERICENTER":87.7488,"MEAN_ANOMALY":272.3952,"EPHEMERIS_TYPE":0,"CLASSIFICATION_TYPE":"U","NORAD_CAT_ID":42809,"ELEMENT_SET_NO":999,"REV_AT_EPOCH":47171,"BSTAR":0.0000015847,"MEAN_MOTION_DOT":2.4e-7,"MEAN_MOTION_DDOT":0}},{"id":"42810","name":"IRIDIUM 124","constellationId":"iridium","omm":{"OBJECT_NAME":"IRIDIUM 124","OBJECT_ID":"2017-039H","EPOCH":"2026-06-29T07:46:29.125344","MEAN_MOTION":14.43281179,"ECCENTRICITY":0.0002208,"INCLINATION":86.4488,"RA_OF_ASC_NODE":285.284,"ARG_OF_PERICENTER":95.1192,"MEAN_ANOMALY":265.0261,"EPHEMERIS_TYPE":0,"CLASSIFICATION_TYPE":"U","NORAD_CAT_ID":42810,"ELEMENT_SET_NO":999,"REV_AT_EPOCH":47686,"BSTAR":0.000088283,"MEAN_MOTION_DOT":0.00000317,"MEAN_MOTION_DDOT":0}},{"id":"42811","name":"IRIDIUM 128","constellationId":"iridium","omm":{"OBJECT_NAME":"IRIDIUM 128","OBJECT_ID":"2017-039J","EPOCH":"2026-06-29T13:23:46.764096","MEAN_MOTION":14.34217333,"ECCENTRICITY":0.0002115,"INCLINATION":86.3963,"RA_OF_ASC_NODE":19.977,"ARG_OF_PERICENTER":91.89,"MEAN_ANOMALY":268.2538,"EPHEMERIS_TYPE":0,"CLASSIFICATION_TYPE":"U","NORAD_CAT_ID":42811,"ELEMENT_SET_NO":999,"REV_AT_EPOCH":47175,"BSTAR":0.000012141,"MEAN_MOTION_DOT":5.4e-7,"MEAN_MOTION_DDOT":0}},{"id":"42812","name":"IRIDIUM 121","constellationId":"iridium","omm":{"OBJECT_NAME":"IRIDIUM 121","OBJECT_ID":"2017-039K","EPOCH":"2026-06-29T12:24:02.928384","MEAN_MOTION":14.34217726,"ECCENTRICITY":0.0002214,"INCLINATION":86.3976,"RA_OF_ASC_NODE":348.5167,"ARG_OF_PERICENTER":92.7989,"MEAN_ANOMALY":267.346,"EPHEMERIS_TYPE":0,"CLASSIFICATION_TYPE":"U","NORAD_CAT_ID":42812,"ELEMENT_SET_NO":999,"REV_AT_EPOCH":47159,"BSTAR":6.5713e-7,"MEAN_MOTION_DOT":2.2e-7,"MEAN_MOTION_DDOT":0}},{"id":"42955","name":"IRIDIUM 133","constellationId":"iridium","omm":{"OBJECT_NAME":"IRIDIUM 133","OBJECT_ID":"2017-061A","EPOCH":"2026-06-29T12:28:58.711008","MEAN_MOTION":14.34217456,"ECCENTRICITY":0.0002028,"INCLINATION":86.396,"RA_OF_ASC_NODE":20.1107,"ARG_OF_PERICENTER":89.2103,"MEAN_ANOMALY":270.9325,"EPHEMERIS_TYPE":0,"CLASSIFICATION_TYPE":"U","NORAD_CAT_ID":42955,"ELEMENT_SET_NO":999,"REV_AT_EPOCH":45654,"BSTAR":-0.00000753,"MEAN_MOTION_DOT":-1e-8,"MEAN_MOTION_DDOT":0}},{"id":"42956","name":"IRIDIUM 100","constellationId":"iridium","omm":{"OBJECT_NAME":"IRIDIUM 100","OBJECT_ID":"2017-061B","EPOCH":"2026-06-29T12:19:50.718144","MEAN_MOTION":14.34217668,"ECCENTRICITY":0.0002181,"INCLINATION":86.3961,"RA_OF_ASC_NODE":20.0318,"ARG_OF_PERICENTER":88.7608,"MEAN_ANOMALY":271.3838,"EPHEMERIS_TYPE":0,"CLASSIFICATION_TYPE":"U","NORAD_CAT_ID":42956,"ELEMENT_SET_NO":999,"REV_AT_EPOCH":45654,"BSTAR":0.0000066447,"MEAN_MOTION_DOT":3.8e-7,"MEAN_MOTION_DDOT":0}},{"id":"42957","name":"IRIDIUM 122","constellationId":"iridium","omm":{"OBJECT_NAME":"IRIDIUM 122","OBJECT_ID":"2017-061C","EPOCH":"2026-06-29T13:14:38.683968","MEAN_MOTION":14.34217749,"ECCENTRICITY":0.0002139,"INCLINATION":86.3962,"RA_OF_ASC_NODE":20.0163,"ARG_OF_PERICENTER":86.9765,"MEAN_ANOMALY":273.1676,"EPHEMERIS_TYPE":0,"CLASSIFICATION_TYPE":"U","NORAD_CAT_ID":42957,"ELEMENT_SET_NO":999,"REV_AT_EPOCH":45655,"BSTAR":0.000009486,"MEAN_MOTION_DOT":4.6e-7,"MEAN_MOTION_DDOT":0}},{"id":"42958","name":"IRIDIUM 129","constellationId":"iridium","omm":{"OBJECT_NAME":"IRIDIUM 129","OBJECT_ID":"2017-061D","EPOCH":"2026-06-29T12:10:42.739104","MEAN_MOTION":14.34217709,"ECCENTRICITY":0.0002304,"INCLINATION":86.3961,"RA_OF_ASC_NODE":20.1019,"ARG_OF_PERICENTER":83.1404,"MEAN_ANOMALY":277.0053,"EPHEMERIS_TYPE":0,"CLASSIFICATION_TYPE":"U","NORAD_CAT_ID":42958,"ELEMENT_SET_NO":999,"REV_AT_EPOCH":45656,"BSTAR":0.000021127,"MEAN_MOTION_DOT":7.9e-7,"MEAN_MOTION_DDOT":0}},{"id":"42959","name":"IRIDIUM 119","constellationId":"iridium","omm":{"OBJECT_NAME":"IRIDIUM 119","OBJECT_ID":"2017-061E","EPOCH":"2026-06-29T13:05:30.564960","MEAN_MOTION":14.34216744,"ECCENTRICITY":0.0002127,"INCLINATION":86.3962,"RA_OF_ASC_NODE":20.0819,"ARG_OF_PERICENTER":85.7568,"MEAN_ANOMALY":274.3871,"EPHEMERIS_TYPE":0,"CLASSIFICATION_TYPE":"U","NORAD_CAT_ID":42959,"ELEMENT_SET_NO":999,"REV_AT_EPOCH":45658,"BSTAR":0.0000053147,"MEAN_MOTION_DOT":3.5e-7,"MEAN_MOTION_DDOT":0}},{"id":"42960","name":"IRIDIUM 107","constellationId":"iridium","omm":{"OBJECT_NAME":"IRIDIUM 107","OBJECT_ID":"2017-061F","EPOCH":"2026-06-29T13:32:54.422592","MEAN_MOTION":14.34216182,"ECCENTRICITY":0.0001949,"INCLINATION":86.3963,"RA_OF_ASC_NODE":20.0953,"ARG_OF_PERICENTER":90.1006,"MEAN_ANOMALY":270.0413,"EPHEMERIS_TYPE":0,"CLASSIFICATION_TYPE":"U","NORAD_CAT_ID":42960,"ELEMENT_SET_NO":999,"REV_AT_EPOCH":45659,"BSTAR":0.000072066,"MEAN_MOTION_DOT":0.00000222,"MEAN_MOTION_DDOT":0}},{"id":"42961","name":"IRIDIUM 132","constellationId":"iridium","omm":{"OBJECT_NAME":"IRIDIUM 132","OBJECT_ID":"2017-061G","EPOCH":"2026-06-29T12:01:34.722048","MEAN_MOTION":14.34217727,"ECCENTRICITY":0.0002127,"INCLINATION":86.3961,"RA_OF_ASC_NODE":20.1011,"ARG_OF_PERICENTER":87.1133,"MEAN_ANOMALY":273.0306,"EPHEMERIS_TYPE":0,"CLASSIFICATION_TYPE":"U","NORAD_CAT_ID":42961,"ELEMENT_SET_NO":999,"REV_AT_EPOCH":45658,"BSTAR":0.0000086123,"MEAN_MOTION_DOT":4.4e-7,"MEAN_MOTION_DDOT":0}},{"id":"42962","name":"IRIDIUM 136","constellationId":"iridium","omm":{"OBJECT_NAME":"IRIDIUM 136","OBJECT_ID":"2017-061H","EPOCH":"2026-06-29T12:47:14.762400","MEAN_MOTION":14.34219155,"ECCENTRICITY":0.0002249,"INCLINATION":86.3966,"RA_OF_ASC_NODE":20.0947,"ARG_OF_PERICENTER":91.1461,"MEAN_ANOMALY":268.9993,"EPHEMERIS_TYPE":0,"CLASSIFICATION_TYPE":"U","NORAD_CAT_ID":42962,"ELEMENT_SET_NO":999,"REV_AT_EPOCH":45660,"BSTAR":0.000062777,"MEAN_MOTION_DOT":0.00000196,"MEAN_MOTION_DDOT":0}},{"id":"42963","name":"IRIDIUM 139","constellationId":"iridium","omm":{"OBJECT_NAME":"IRIDIUM 139","OBJECT_ID":"2017-061J","EPOCH":"2026-06-29T12:56:22.681824","MEAN_MOTION":14.34217541,"ECCENTRICITY":0.0002041,"INCLINATION":86.3962,"RA_OF_ASC_NODE":20.154,"ARG_OF_PERICENTER":90.9518,"MEAN_ANOMALY":269.1912,"EPHEMERIS_TYPE":0,"CLASSIFICATION_TYPE":"U","NORAD_CAT_ID":42963,"ELEMENT_SET_NO":999,"REV_AT_EPOCH":45661,"BSTAR":-0.000003982,"MEAN_MOTION_DOT":9e-8,"MEAN_MOTION_DDOT":0}},{"id":"42964","name":"IRIDIUM 125","constellationId":"iridium","omm":{"OBJECT_NAME":"IRIDIUM 125","OBJECT_ID":"2017-061K","EPOCH":"2026-06-29T12:38:08.067264","MEAN_MOTION":14.3421896,"ECCENTRICITY":0.0001829,"INCLINATION":86.3965,"RA_OF_ASC_NODE":20.2208,"ARG_OF_PERICENTER":76.4988,"MEAN_ANOMALY":283.6411,"EPHEMERIS_TYPE":0,"CLASSIFICATION_TYPE":"U","NORAD_CAT_ID":42964,"ELEMENT_SET_NO":999,"REV_AT_EPOCH":45662,"BSTAR":0.000073281,"MEAN_MOTION_DOT":0.00000225,"MEAN_MOTION_DDOT":0}}]}